{
  "norad_id": 65050,
  "name": "HULIANWANG DIGUI-47",
  "history": [
    {
      "epoch": "2026-03-28T19:35:10.913856Z",
      "apogee_km": 1149.999770828028,
      "perigee_km": 1148.5480343613535,
      "latitude_deg": 1.3544268782844691e-05,
      "longitude_deg": 73.74581758638688,
      "height_km": 1150.4808570661191,
      "semi_major_axis_km": 7527.410902594691,
      "eccentricity": 9.643e-05,
      "inclination_deg": 50.0021,
      "raan_deg": 193.7724,
      "arg_perigee_deg": 164.9941,
      "mean_anomaly_deg": 195.096,
      "mean_motion_rev_day": 13.29334654
    },
    {
      "epoch": "2026-03-29T04:36:28.217664Z",
      "apogee_km": 1149.9969432219987,
      "perigee_km": 1148.550174912546,
      "latitude_deg": -6.183685953401197e-05,
      "longitude_deg": -63.29504325580356,
      "height_km": 1150.4830222832347,
      "semi_major_axis_km": 7527.4105590672725,
      "eccentricity": 9.61e-05,
      "inclination_deg": 50.0021,
      "raan_deg": 192.4242,
      "arg_perigee_deg": 166.5633,
      "mean_anomaly_deg": 193.5264,
      "mean_motion_rev_day": 13.29334745
    }
  ]
}